TEVEL2-6                
1 63215U 25052F   26068.64958975  .00021046  00000+0  70909-3 0  9996
2 63215  97.4016 325.0381 0004769  95.6604 264.5181 15.30760889 54861
STARLINK-36075          
1 66905U 25283AD  26068.26290423  .00009507  00000+0  33325-3 0  9995
2 66905  53.1623  26.5141 0001156 128.6218 231.4886 15.30145175 15772
